{"type": "FeatureCollection", "features": [ {"type": "Feature", "properties": {"norad_id": 32289, "name": "YAOGAN-3", "group": "resource", "lat": -25.01701186185536, "lon": 8.33667982582712, "alt_km": 604.4469780564277, "timestamp": "2025-12-03T22:42:32.313309+00:00", "meta": {"OBJECT_NAME": "YAOGAN-3", "OBJECT_ID": "2007-055A", "EPOCH": "2025-12-03T13:09:01.381824", "MEAN_MOTION": 14.89784154, "ECCENTRICITY": 0.0001506, "INCLINATION": 97.8376, "RA_OF_ASC_NODE": 4.2564, "ARG_OF_PERICENTER": 77.6527, "MEAN_ANOMALY": 282.4859, "EPHEMERIS_TYPE": 0, "CLASSIFICATION_TYPE": "U", "NORAD_CAT_ID": 32289, "ELEMENT_SET_NO": 999, "REV_AT_EPOCH": 97672, "BSTAR": 0.00039254, "MEAN_MOTION_DOT": 3.71e-05, "MEAN_MOTION_DDOT": 0}, "tle": {"line1": "1 32289U 07055A   25337.54793266  .00003710  00000+0  39254-3 0  9999", "line2": "2 32289  97.8376   4.2564 0001506  77.6527 282.4859 14.89784154976723"}}, "geometry": {"type": "Point", "coordinates": [8.33667982582712, -25.01701186185536]}}, {"type": "Feature", "properties": {"norad_id": 32376, "name": "COSMO-SKYMED 2", "group": "resource", "lat": 43.08808956891131, "lon": -13.153730260908096, "alt_km": 618.3038632868938, "timestamp": "2025-12-03T22:42:32.313319+00:00", "meta": {"OBJECT_NAME": "COSMO-SKYMED 2", "OBJECT_ID": "2007-059A", "EPOCH": "2025-12-03T12:22:28.460352", "MEAN_MOTION": 14.82147313, "ECCENTRICITY": 0.000153, "INCLINATION": 97.8806, "RA_OF_ASC_NODE": 158.9781, "ARG_OF_PERICENTER": 88.2571, "MEAN_ANOMALY": 271.8817, "EPHEMERIS_TYPE": 0, "CLASSIFICATION_TYPE": "U", "NORAD_CAT_ID": 32376, "ELEMENT_SET_NO": 999, "REV_AT_EPOCH": 97301, "BSTAR": 0.00014071, "MEAN_MOTION_DOT": 1.068e-05, "MEAN_MOTION_DDOT": 0}, "tle": {"line1": "1 32376U 07059A   25337.51560718  .00001068  00000+0  14071-3 0  9995", "line2": "2 32376  97.8806 158.9781 0001530  88.2571 271.8817 14.82147313973018"}}, "geometry": {"type": "Point", "coordinates": [-13.153730260908096, 43.08808956891131]}}, {"type": "Feature", "properties": {"norad_id": 32382, "name": "RADARSAT-2", "group": "resource", "lat": -64.59066048383033, "lon": 1.1953328207296887, "alt_km": 799.6821247240396, "timestamp": "2025-12-03T22:42:32.313328+00:00", "meta": {"OBJECT_NAME": "RADARSAT-2", "OBJECT_ID": "2007-061A", "EPOCH": "2025-12-03T12:56:28.902624", "MEAN_MOTION": 14.29983652, "ECCENTRICITY": 0.000108, "INCLINATION": 98.58, "RA_OF_ASC_NODE": 342.2631, "ARG_OF_PERICENTER": 91.0077, "MEAN_ANOMALY": 269.1229, "EPHEMERIS_TYPE": 0, "CLASSIFICATION_TYPE": "U", "NORAD_CAT_ID": 32382, "ELEMENT_SET_NO": 999, "REV_AT_EPOCH": 93799, "BSTAR": 6.8955e-05, "MEAN_MOTION_DOT": 1.34e-06, "MEAN_MOTION_DDOT": 0}, "tle": {"line1": "1 32382U 07061A   25337.53922341  .00000134  00000+0  68955-4 0  9995", "line2": "2 32382  98.5800 342.2631 0001080  91.0077 269.1229 14.29983652937991"}}, "geometry": {"type": "Point", "coordinates": [1.1953328207296887, -64.59066048383033]}}, {"type": "Feature", "properties": {"norad_id": 32783, "name": "CARTOSAT-2A", "group": "resource", "lat": 17.935285684180446, "lon": 25.503014180935967, "alt_km": 624.683996853706, "timestamp": "2025-12-03T22:42:32.313338+00:00", "meta": {"OBJECT_NAME": "CARTOSAT-2A", "OBJECT_ID": "2008-021A", "EPOCH": "2025-12-03T11:15:39.178080", "MEAN_MOTION": 14.78908388, "ECCENTRICITY": 0.001249, "INCLINATION": 97.7944, "RA_OF_ASC_NODE": 27.5819, "ARG_OF_PERICENTER": 33.5864, "MEAN_ANOMALY": 326.6137, "EPHEMERIS_TYPE": 0, "CLASSIFICATION_TYPE": "U", "NORAD_CAT_ID": 32783, "ELEMENT_SET_NO": 999, "REV_AT_EPOCH": 94987, "BSTAR": 0.00019619, "MEAN_MOTION_DOT": 1.397e-05, "MEAN_MOTION_DDOT": 0}, "tle": {"line1": "1 32783U 08021A   25337.46920345  .00001397  00000+0  19619-3 0  9995", "line2": "2 32783  97.7944  27.5819 0012490  33.5864 326.6137 14.78908388949873"}}, "geometry": {"type": "Point", "coordinates": [25.503014180935967, 17.935285684180446]}}, {"type": "Feature", "properties": {"norad_id": 33320, "name": "HUANJING 1A (HJ-1A)", "group": "resource", "lat": 74.67865577644783, "lon": 176.00748004625413, "alt_km": 600.8731737828184, "timestamp": "2025-12-03T22:42:32.313347+00:00", "meta": {"OBJECT_NAME": "HUANJING 1A (HJ-1A)", "OBJECT_ID": "2008-041A", "EPOCH": "2025-12-03T12:31:58.620864", "MEAN_MOTION": 14.83346429, "ECCENTRICITY": 0.0020647, "INCLINATION": 97.6536, "RA_OF_ASC_NODE": 326.2063, "ARG_OF_PERICENTER": 62.9456, "MEAN_ANOMALY": 297.3863, "EPHEMERIS_TYPE": 0, "CLASSIFICATION_TYPE": "U", "NORAD_CAT_ID": 33320, "ELEMENT_SET_NO": 999, "REV_AT_EPOCH": 92939, "BSTAR": 0.00026912, "MEAN_MOTION_DOT": 2.162e-05, "MEAN_MOTION_DDOT": 0}, "tle": {"line1": "1 33320U 08041A   25337.52220626  .00002162  00000+0  26912-3 0  9992", "line2": "2 33320  97.6536 326.2063 0020647  62.9456 297.3863 14.83346429929396"}}, "geometry": {"type": "Point", "coordinates": [176.00748004625413, 74.67865577644783]}}, {"type": "Feature", "properties": {"norad_id": 33321, "name": "HUANJING 1B (HJ-1B)", "group": "resource", "lat": -18.08827715288188, "lon": -27.154903416718923, "alt_km": 639.5461242405481, "timestamp": "2025-12-03T22:42:32.313357+00:00", "meta": {"OBJECT_NAME": "HUANJING 1B (HJ-1B)", "OBJECT_ID": "2008-041B", "EPOCH": "2025-12-03T13:04:26.048352", "MEAN_MOTION": 14.82782056, "ECCENTRICITY": 0.0038163, "INCLINATION": 97.6396, "RA_OF_ASC_NODE": 329.9488, "ARG_OF_PERICENTER": 104.8212, "MEAN_ANOMALY": 255.7234, "EPHEMERIS_TYPE": 0, "CLASSIFICATION_TYPE": "U", "NORAD_CAT_ID": 33321, "ELEMENT_SET_NO": 999, "REV_AT_EPOCH": 92941, "BSTAR": 0.00021388, "MEAN_MOTION_DOT": 1.699e-05, "MEAN_MOTION_DDOT": 0}, "tle": {"line1": "1 33321U 08041B   25337.54474593  .00001699  00000+0  21388-3 0  9995", "line2": "2 33321  97.6396 329.9488 0038163 104.8212 255.7234 14.82782056929412"}}, "geometry": {"type": "Point", "coordinates": [-27.154903416718923, -18.08827715288188]}}, {"type": "Feature", "properties": {"norad_id": 33331, "name": "GEOEYE 1", "group": "resource", "lat": 2.7801014329073928, "lon": -130.26602441053245, "alt_km": 681.936324666467, "timestamp": "2025-12-03T22:42:32.313366+00:00", "meta": {"OBJECT_NAME": "GEOEYE 1", "OBJECT_ID": "2008-042A", "EPOCH": "2025-12-03T12:03:58.718016", "MEAN_MOTION": 14.64791688, "ECCENTRICITY": 0.0002978, "INCLINATION": 98.1264, "RA_OF_ASC_NODE": 48.8985, "ARG_OF_PERICENTER": 316.8628, "MEAN_ANOMALY": 43.2342, "EPHEMERIS_TYPE": 0, "CLASSIFICATION_TYPE": "U", "NORAD_CAT_ID": 33331, "ELEMENT_SET_NO": 999, "REV_AT_EPOCH": 92150, "BSTAR": 0.00019116, "MEAN_MOTION_DOT": 9.72e-06, "MEAN_MOTION_DDOT": 0}, "tle": {"line1": "1 33331U 08042A   25337.50276294  .00000972  00000+0  19116-3 0  9990", "line2": "2 33331  98.1264  48.8985 0002978 316.8628  43.2342 14.64791688921506"}}, "geometry": {"type": "Point", "coordinates": [-130.26602441053245, 2.7801014329073928]}}, {"type": "Feature", "properties": {"norad_id": 33396, "name": "THEOS", "group": "resource", "lat": 6.734627659894774, "lon": 35.272286381604445, "alt_km": 827.0679121957282, "timestamp": "2025-12-03T22:42:32.313379+00:00", "meta": {"OBJECT_NAME": "THEOS", "OBJECT_ID": "2008-049A", "EPOCH": "2025-12-03T12:31:51.866976", "MEAN_MOTION": 14.20093184, "ECCENTRICITY": 0.000109, "INCLINATION": 98.5881, "RA_OF_ASC_NODE": 35.8832, "ARG_OF_PERICENTER": 100.461, "MEAN_ANOMALY": 259.669, "EPHEMERIS_TYPE": 0, "CLASSIFICATION_TYPE": "U", "NORAD_CAT_ID": 33396, "ELEMENT_SET_NO": 999, "REV_AT_EPOCH": 89019, "BSTAR": 7.2748e-05, "MEAN_MOTION_DOT": 1.12e-06, "MEAN_MOTION_DDOT": 0}, "tle": {"line1": "1 33396U 08049A   25337.52212809  .00000112  00000+0  72748-4 0  9999", "line2": "2 33396  98.5881  35.8832 0001090 100.4610 259.6690 14.20093184890192"}}, "geometry": {"type": "Point", "coordinates": [35.272286381604445, 6.734627659894774]}}, {"type": "Feature", "properties": {"norad_id": 33412, "name": "COSMO-SKYMED 3", "group": "resource", "lat": -75.89025243966282, "lon": -138.53545382034582, "alt_km": 556.0317801564152, "timestamp": "2025-12-03T22:42:32.313393+00:00", "meta": {"OBJECT_NAME": "COSMO-SKYMED 3", "OBJECT_ID": "2008-054A", "EPOCH": "2025-12-03T13:29:01.959936", "MEAN_MOTION": 15.05212926, "ECCENTRICITY": 0.0015429, "INCLINATION": 97.8468, "RA_OF_ASC_NODE": 187.7996, "ARG_OF_PERICENTER": 204.5236, "MEAN_ANOMALY": 155.5258, "EPHEMERIS_TYPE": 0, "CLASSIFICATION_TYPE": "U", "NORAD_CAT_ID": 33412, "ELEMENT_SET_NO": 999, "REV_AT_EPOCH": 92749, "BSTAR": 0.00045834, "MEAN_MOTION_DOT": 6.495e-05, "MEAN_MOTION_DDOT": 0}, "tle": {"line1": "1 33412U 08054A   25337.56182824  .00006495  00000+0  45834-3 0  9996", "line2": "2 33412  97.8468 187.7996 0015429 204.5236 155.5258 15.05212926927492"}}, "geometry": {"type": "Point", "coordinates": [-138.53545382034582, -75.89025243966282]}}, {"type": "Feature", "properties": {"norad_id": 33446, "name": "YAOGAN-4", "group": "resource", "lat": -75.67676660744323, "lon": 55.10676507362173, "alt_km": 629.1669318312952, "timestamp": "2025-12-03T22:42:32.313406+00:00", "meta": {"OBJECT_NAME": "YAOGAN-4", "OBJECT_ID": "2008-061A", "EPOCH": "2025-12-03T08:35:24.296640", "MEAN_MOTION": 14.8263402, "ECCENTRICITY": 0.0014411, "INCLINATION": 97.917, "RA_OF_ASC_NODE": 267.5501, "ARG_OF_PERICENTER": 354.6933, "MEAN_ANOMALY": 5.4125, "EPHEMERIS_TYPE": 0, "CLASSIFICATION_TYPE": "U", "NORAD_CAT_ID": 33446, "ELEMENT_SET_NO": 999, "REV_AT_EPOCH": 91664, "BSTAR": 0.00028686, "MEAN_MOTION_DOT": 2.261e-05, "MEAN_MOTION_DDOT": 0}, "tle": {"line1": "1 33446U 08061A   25337.35792010  .00002261  00000+0  28686-3 0  9995", "line2": "2 33446  97.9170 267.5501 0014411 354.6933   5.4125 14.82634020916648"}}, "geometry": {"type": "Point", "coordinates": [55.10676507362173, -75.67676660744323]}}]}